{
"type": "FeatureCollection",
"name": "zones",
"crs": { "type": "name", "properties": { "name": "urn:ogc:def:crs:OGC:1.3:CRS84" } },
"features": [
{ "type": "Feature", "properties": { "zone_id": "Z1", "total_population": 7989 }, "geometry": { "type": "Polygon", "coordinates": [ [ [ 85.115013268277124, 27.952630030030029 ], [ 85.115013268277124, 28.012690090090089 ], [ 85.047039804831357, 28.012690090090089 ], [ 85.047039804831357, 27.952630030030029 ], [ 85.115013268277124, 27.952630030030029 ] ] ] } },
{ "type": "Feature", "properties": { "zone_id": "Z2", "total_population": 16760 }, "geometry": { "type": "Polygon", "coordinates": [ [ [ 85.182986731722877, 27.952630030030029 ], [ 85.182986731722877, 28.012690090090089 ], [ 85.115013268277124, 28.012690090090089 ], [ 85.115013268277124, 27.952630030030029 ], [ 85.182986731722877, 27.952630030030029 ] ] ] } },
{ "type": "Feature", "properties": { "zone_id": "Z3", "total_population": 18831 }, "geometry": { "type": "Polygon", "coordinates": [ [ [ 85.250960195168645, 27.952630030030029 ], [ 85.250960195168645, 28.012690090090089 ], [ 85.182986731722877, 28.012690090090089 ], [ 85.182986731722877, 27.952630030030029 ], [ 85.250960195168645, 27.952630030030029 ] ] ] } },
{ "type": "Feature", "properties": { "zone_id": "Z4", "total_population": 9570 }, "geometry": { "type": "Polygon", "coordinates": [ [ [ 85.115013268277124, 27.892569969969969 ], [ 85.115013268277124, 27.952630030030029 ], [ 85.047039804831357, 27.952630030030029 ], [ 85.047039804831357, 27.892569969969969 ], [ 85.115013268277124, 27.892569969969969 ] ] ] } },
{ "type": "Feature", "properties": { "zone_id": "Z5", "total_population": 27643 }, "geometry": { "type": "Polygon", "coordinates": [ [ [ 85.182986731722877, 27.892569969969969 ], [ 85.182986731722877, 27.952630030030029 ], [ 85.115013268277124, 27.952630030030029 ], [ 85.115013268277124, 27.892569969969969 ], [ 85.182986731722877, 27.892569969969969 ] ] ] } },
{ "type": "Feature", "properties": { "zone_id": "Z6", "total_population": 15972 }, "geometry": { "type": "Polygon", "coordinates": [ [ [ 85.250960195168645, 27.892569969969969 ], [ 85.250960195168645, 27.952630030030029 ], [ 85.182986731722877, 27.952630030030029 ], [ 85.182986731722877, 27.892569969969969 ], [ 85.250960195168645, 27.892569969969969 ] ] ] } },
{ "type": "Feature", "properties": { "zone_id": "Z7", "total_population": 12538 }, "geometry": { "type": "Polygon", "coordinates": [ [ [ 85.115013268277124, 27.832509909909909 ], [ 85.115013268277124, 27.892569969969969 ], [ 85.047039804831357, 27.892569969969969 ], [ 85.047039804831357, 27.832509909909909 ], [ 85.115013268277124, 27.832509909909909 ] ] ] } },
{ "type": "Feature", "properties": { "zone_id": "Z8", "total_population": 16819 }, "geometry": { "type": "Polygon", "coordinates": [ [ [ 85.182986731722877, 27.832509909909909 ], [ 85.182986731722877, 27.892569969969969 ], [ 85.115013268277124, 27.892569969969969 ], [ 85.115013268277124, 27.832509909909909 ], [ 85.182986731722877, 27.832509909909909 ] ] ] } },
{ "type": "Feature", "properties": { "zone_id": "Z9", "total_population": 11333 }, "geometry": { "type": "Polygon", "coordinates": [ [ [ 85.250960195168645, 27.832509909909909 ], [ 85.250960195168645, 27.892569969969969 ], [ 85.182986731722877, 27.892569969969969 ], [ 85.182986731722877, 27.832509909909909 ], [ 85.250960195168645, 27.832509909909909 ] ] ] } }
]
}
